OBJECT_NAME,OBJECT_ID,EPOCH,MEAN_MOTION,ECCENTRICITY,INCLINATION,RA_OF_ASC_NODE,ARG_OF_PERICENTER,MEAN_ANOMALY,EPHEMERIS_TYPE,CLASSIFICATION_TYPE,NORAD_CAT_ID,ELEMENT_SET_NO,REV_AT_EPOCH,BSTAR,MEAN_MOTION_DOT,MEAN_MOTION_DDOT
QZS-3 (MICHIBIKI-3),2017-048A,2026-07-16T07:04:52.302720,1.00271663,.00025604,0.0637,213.5574,272.9287,40.9011,0,U,42917,999,3255,0,-.358E-5,0
AMAZONAS 5,2017-053A,2026-07-14T01:08:59.868096,1.00268891,.00010296,0.0321,328.7293,114.1312,165.2908,0,U,42934,999,3231,0,-.288E-5,0
INTELSAT 37E (IS-37E),2017-059A,2026-07-16T06:23:33.763200,1.00271998,.00024886,0.0163,55.7138,63.5268,252.7295,0,U,42950,999,3235,0,-.151E-5,0
BSAT-4A,2017-059B,2026-07-16T07:00:00.268992,1.00271128,.00034232,0.0390,31.1429,49.0111,68.8026,0,U,42951,999,3209,0,-.361E-5,0
QZS-4 (MICHIBIKI-4),2017-062A,2026-07-14T14:36:13.319136,1.00290232,.0747384,40.0921,343.1359,268.5643,38.8857,0,U,42965,999,3207,0,-.342E-5,0
SES-11 (ECHOSTAR 105),2017-063A,2026-07-16T05:51:38.778048,1.00271164,.00027004,0.0350,302.5634,161.6112,172.8562,0,U,42967,999,3201,0,-.1E-5,0
KOREASAT 5A,2017-067A,2026-07-16T07:01:00.174432,1.00269106,.00006612,0.0309,291.5261,172.6795,48.3013,0,U,42984,999,3182,0,-.369E-5,0
ALCOMSAT 1,2017-078A,2026-07-16T06:21:33.954048,1.00268620,.00022601,0.0498,260.8657,210.1536,253.6396,0,U,43039,999,3158,0,-.197E-5,0
SBIRS GEO-3 (USA 282),2018-009A,2026-07-16T07:06:44.419680,1.00270956,.00017699,2.2055,13.4592,98.7250,129.2326,0,U,43162,999,3113,0,.117E-5,0
AL YAH 3,2018-012A,2026-07-16T06:22:56.322624,1.00270653,.00035703,1.6250,82.7532,30.9107,256.0543,0,U,43174,999,3113,0,-.167E-5,0
SES-14,2018-012B,2026-07-15T19:59:15.299808,1.00271205,.000081,0.0143,35.5032,85.8206,64.6502,0,U,43175,999,731,0,-.289E-5,0
GOES 17,2018-022A,2026-07-16T07:18:06.043104,1.00270955,.00005753,1.0098,85.2390,76.8342,152.0926,0,U,43226,999,3071,0,-.194E-5,0
HISPASAT 30W-6,2018-023A,2026-07-14T03:00:32.972832,1.00270644,.00051302,0.0444,50.2849,39.9946,216.8713,0,U,43228,999,3067,0,-.222E-5,0
SUPERBIRD-B3,2018-033A,2026-07-16T05:12:38.550240,1.00270843,.00010607,0.0189,34.8467,93.3076,46.0601,0,U,43271,999,3035,0,-.103E-5,0
HYLAS 4,2018-033B,2026-07-15T12:58:38.601120,1.00270958,.00006217,0.0205,300.3338,217.4704,296.7451,0,U,43272,999,3035,0,-.244E-5,0
IRNSS-1I,2018-035A,2026-07-15T18:06:38.752416,1.00271937,.00184286,28.8196,73.7504,178.5609,8.0026,0,U,43286,999,3036,0,.58E-6,0
USA 283,2018-036A,2026-07-13T12:26:22.439328,1.00270146,.000101,0.0181,51.7317,164.1991,36.1561,0,U,43339,999,2555,0,0,0
COSMOS 2526,2018-037A,2026-07-15T00:17:30.350976,1.00268298,.00008216,0.0358,106.6288,157.1060,161.5486,0,U,43432,999,3023,0,-.354E-5,0
APSTAR-6C,2018-041A,2026-07-14T16:13:15.007296,1.00273807,.0000779,0.0593,289.3735,296.5328,83.9303,0,U,43450,999,3008,0,-.326E-5,0
BANGABANDHUSAT-1,2018-044A,2026-07-16T07:02:37.517856,1.00269578,.00017303,0.0261,95.9965,30.6730,32.1964,0,U,43463,999,3000,0,-.373E-5,0
SES-12,2018-049A,2026-07-16T02:32:21.831072,1.00270782,.00009057,0.0110,22.8659,238.4383,165.7181,0,U,43488,999,2970,0,-.28E-5,0
FENGYUN 2H,2018-050A,2026-07-16T03:46:38.668800,1.00267030,.00023173,3.1035,78.7266,134.3526,216.6914,0,U,43491,999,2972,0,-.139E-5,0
BEIDOU-2 IGSO-7,2018-057A,2026-07-01T21:23:21.693984,1.00246939,.01049468,55.1981,162.9292,237.8611,308.6338,0,U,43539,999,2927,0,-.33E-6,0
TELSTAR 19V,2018-059A,2026-07-16T06:10:42.494592,1.00269596,.00028912,0.0273,144.1741,346.1156,193.4720,0,U,43562,999,2943,0,-.29E-5,0
TELKOM 4 (MERAH PUTIH),2018-064A,2026-07-16T06:59:30.316704,1.00266534,.00011204,0.0149,58.5968,69.4915,18.9111,0,U,43587,999,2917,0,0,0
TELSTAR 18V,2018-069A,2026-07-13T12:29:20.367168,1.00269998,.00016639,0.0151,318.0250,158.6111,140.0899,0,U,43611,999,2890,0,-.298E-5,0
AZERSPACE 2 (IS-38),2018-074A,2026-07-15T20:25:42.166272,1.00273206,.00016179,0.0246,58.5053,67.4827,159.2539,0,U,43632,999,2873,0,0,0
HORIZONS-3E,2018-074B,2026-07-13T15:21:38.465856,1.00270118,.00009408,0.0498,224.9289,53.6947,52.2963,0,U,43633,999,2860,0,-.35E-6,0
AEHF-4 (USA 288),2018-079A,2026-07-16T06:09:20.126016,1.00276054,.00585222,1.4405,6.3881,353.8959,318.6033,0,U,43651,999,2858,0,-.286E-5,0
BEIDOU-3 G1,2018-085A,2026-07-16T05:31:36.820992,1.00272490,.00079916,2.9396,96.5794,356.8224,83.5330,0,U,43683,999,2835,0,-.121E-5,0
